start=new Date('2023-01-27T00:00:00.000Z').valueOf();
sats=[{"MEAN_MOTION_DOT":"0.00002355","MEAN_ELEMENT_THEORY":"SGP4","RCS_SIZE":"LARGE","GP_ID":"223756240","EPHEMERIS_TYPE":"0","BSTAR":"0.00017697000000","DECAY_DATE":null,"RA_OF_ASC_NODE":"180.6274","PERIAPSIS":"546.267","TIME_SYSTEM":"UTC","TLE_LINE1":"1 48678U 21044AS  23026.61729204  .00002355  00000-0  17697-3 0  9996","APOAPSIS":"548.185","OBJECT_TYPE":"PAYLOAD","OBJECT_NAME":"STARLINK-2615","CLASSIFICATION_TYPE":"U","COUNTRY_CODE":"US","SEMIMAJOR_AXIS":"6925.361","REV_AT_EPOCH":"9231","MEAN_MOTION":"15.06395986","LAUNCH_DATE":"2021-05-26","NORAD_CAT_ID":"48678","EPOCH":"2023-01-26T14:48:54.032256","MEAN_MOTION_DDOT":"0.0000000000000","OBJECT_ID":"2021-044AS","CENTER_NAME":"EARTH","SITE":"AFETR","ELEMENT_SET_NO":"999","TLE_LINE2":"2 48678  53.0531 180.6274 0001385  81.1147 278.9999 15.06395986 92319","ECCENTRICITY":"0.00013850","REF_FRAME":"TEME","INCLINATION":"53.0531","FILE":"3761951","MEAN_ANOMALY":"278.9999","PERIOD":"95.592","ARG_OF_PERICENTER":"81.1147"},{"LAUNCH_DATE":"2021-05-26","NORAD_CAT_ID":"48679","SITE":"AFETR","EPOCH":"2023-01-26T17:54:40.757184","OBJECT_ID":"2021-044AT","MEAN_MOTION_DDOT":"0.0000000000000","CENTER_NAME":"EARTH","ELEMENT_SET_NO":"999","MEAN_ANOMALY":"276.0836","PERIOD":"95.593","ARG_OF_PERICENTER":"84.0280","REF_FRAME":"TEME","TLE_LINE2":"2 48679  53.0534 180.0535 0001119  84.0280 276.0836 15.06389030 93179","ECCENTRICITY":"0.00011190","FILE":"3762171","INCLINATION":"53.0534","RCS_SIZE":"LARGE","GP_ID":"223765662","EPHEMERIS_TYPE":"0","MEAN_MOTION_DOT":"-0.00000329","MEAN_ELEMENT_THEORY":"SGP4","TIME_SYSTEM":"UTC","TLE_LINE1":"1 48679U 21044AT  23026.74630506 -.00000329  00000-0 -31836-5 0  9991","APOAPSIS":"548.022","BSTAR":"-0.00000318360000","DECAY_DATE":null,"RA_OF_ASC_NODE":"180.0535","PERIAPSIS":"546.472","CLASSIFICATION_TYPE":"U","COUNTRY_CODE":"US","OBJECT_TYPE":"PAYLOAD","OBJECT_NAME":"STARLINK-2648","MEAN_MOTION":"15.06389030","SEMIMAJOR_AXIS":"6925.382","REV_AT_EPOCH":"9317"},{"OBJECT_TYPE":"PAYLOAD","OBJECT_NAME":"STARLINK-2649","COUNTRY_CODE":"US","CLASSIFICATION_TYPE":"U","SEMIMAJOR_AXIS":"6925.355","REV_AT_EPOCH":"9231","MEAN_MOTION":"15.06397950","MEAN_MOTION_DOT":"0.00000819","MEAN_ELEMENT_THEORY":"SGP4","RCS_SIZE":"LARGE","GP_ID":"223754738","EPHEMERIS_TYPE":"0","BSTAR":"0.00007384500000","DECAY_DATE":null,"RA_OF_ASC_NODE":"180.6593","PERIAPSIS":"546.361","TIME_SYSTEM":"UTC","TLE_LINE1":"1 48680U 21044AU  23026.60991933  .00000819  00000-0  73845-4 0  9999","APOAPSIS":"548.079","ELEMENT_SET_NO":"999","ECCENTRICITY":"0.00012400","TLE_LINE2":"2 48680  53.0541 180.6593 0001240  84.8374 275.2756 15.06397950 92313","REF_FRAME":"TEME","INCLINATION":"53.0541","FILE":"3761951","MEAN_ANOMALY":"275.2756","PERIOD":"95.592","ARG_OF_PERICENTER":"84.8374","LAUNCH_DATE":"2021-05-26","NORAD_CAT_ID":"48680","EPOCH":"2023-01-26T14:38:17.030112","MEAN_MOTION_DDOT":"0.0000000000000","OBJECT_ID":"2021-044AU","CENTER_NAME":"EARTH","SITE":"AFETR"},{"MEAN_MOTION":"15.06400985","REV_AT_EPOCH":"9362","SEMIMAJOR_AXIS":"6925.346","CLASSIFICATION_TYPE":"U","COUNTRY_CODE":"US","OBJECT_NAME":"STARLINK-2725","OBJECT_TYPE":"PAYLOAD","APOAPSIS":"548.029","TIME_SYSTEM":"UTC","TLE_LINE1":"1 48681U 21044AV  23026.60902787  .00001724  00000-0  13461-3 0  9992","PERIAPSIS":"546.392","DECAY_DATE":null,"RA_OF_ASC_NODE":"150.9061","BSTAR":"0.00013461000000","EPHEMERIS_TYPE":"0","GP_ID":"223765747","RCS_SIZE":"LARGE","MEAN_ELEMENT_THEORY":"SGP4","MEAN_MOTION_DOT":"0.00001724","PERIOD":"95.592","ARG_OF_PERICENTER":"84.1804","MEAN_ANOMALY":"275.9319","INCLINATION":"53.0517","FILE":"3762189","ECCENTRICITY":"0.00011820","TLE_LINE2":"2 48681  53.0517 150.9061 0001182  84.1804 275.9319 15.06400985 93623","REF_FRAME":"TEME","ELEMENT_SET_NO":"999","SITE":"AFETR","MEAN_MOTION_DDOT":"0.0000000000000","OBJECT_ID":"2021-044AV","CENTER_NAME":"EARTH","EPOCH":"2023-01-26T14:37:00.007968","NORAD_CAT_ID":"48681","LAUNCH_DATE":"2021-05-26"},{"EPHEMERIS_TYPE":"0","RCS_SIZE":"LARGE","GP_ID":"223765807","MEAN_ELEMENT_THEORY":"SGP4","MEAN_MOTION_DOT":"0.00029476","APOAPSIS":"548.028","TLE_LINE1":"1 48682U 21044AW  23026.73897065  .00029476  00000-0  19863-2 0  9994","TIME_SYSTEM":"UTC","RA_OF_ASC_NODE":"140.2522","DECAY_DATE":null,"PERIAPSIS":"546.033","BSTAR":"0.00198630000000","COUNTRY_CODE":"US","CLASSIFICATION_TYPE":"U","OBJECT_NAME":"STARLINK-2743","OBJECT_TYPE":"PAYLOAD","MEAN_MOTION":"15.06459675","REV_AT_EPOCH":"9372","SEMIMAJOR_AXIS":"6925.166","NORAD_CAT_ID":"48682","LAUNCH_DATE":"2021-05-26","SITE":"AFETR","CENTER_NAME":"EARTH","OBJECT_ID":"2021-044AW","MEAN_MOTION_DDOT":"0.0000000000000","EPOCH":"2023-01-26T17:44:07.064160","ELEMENT_SET_NO":"999","PERIOD":"95.588","ARG_OF_PERICENTER":"83.0416","MEAN_ANOMALY":"277.0737","FILE":"3762182","INCLINATION":"53.0527","ECCENTRICITY":"0.00014400","TLE_LINE2":"2 48682  53.0527 140.2522 0001440  83.0416 277.0737 15.06459675 93721","REF_FRAME":"TEME"},{"MEAN_MOTION":"15.06401785","SEMIMAJOR_AXIS":"6925.343","REV_AT_EPOCH":"9286","COUNTRY_CODE":"US","CLASSIFICATION_TYPE":"U","OBJECT_TYPE":"PAYLOAD","OBJECT_NAME":"STARLINK-2756","TLE_LINE1":"1 48683U 21044AX  23026.56200094  .00001943  00000-0  14928-3 0  9993","TIME_SYSTEM":"UTC","APOAPSIS":"547.876","BSTAR":"0.00014928000000","DECAY_DATE":null,"PERIAPSIS":"546.540","RA_OF_ASC_NODE":"140.8944","GP_ID":"223755968","RCS_SIZE":"LARGE","EPHEMERIS_TYPE":"0","MEAN_MOTION_DOT":"0.00001943","MEAN_ELEMENT_THEORY":"SGP4","MEAN_ANOMALY":"267.0244","ARG_OF_PERICENTER":"93.0855","PERIOD":"95.592","REF_FRAME":"TEME","TLE_LINE2":"2 48683  53.0521 140.8944 0000964  93.0855 267.0244 15.06401785 92863","ECCENTRICITY":"0.00009640","FILE":"3761951","INCLINATION":"53.0521","ELEMENT_SET_NO":"999","SITE":"AFETR","EPOCH":"2023-01-26T13:29:16.881216","CENTER_NAME":"EARTH","MEAN_MOTION_DDOT":"0.0000000000000","OBJECT_ID":"2021-044AX","LAUNCH_DATE":"2021-05-26","NORAD_CAT_ID":"48683"},{"MEAN_ANOMALY":"273.0672","PERIOD":"95.591","ARG_OF_PERICENTER":"87.0454","REF_FRAME":"TEME","TLE_LINE2":"2 48684  53.0542 155.2400 0001201  87.0454 273.0672 15.06410529 93585","ECCENTRICITY":"0.00012010","FILE":"3762183","INCLINATION":"53.0542","ELEMENT_SET_NO":"999","SITE":"AFETR","EPOCH":"2023-01-26T18:48:27.804096","MEAN_MOTION_DDOT":"0.0000000000000","OBJECT_ID":"2021-044AY","CENTER_NAME":"EARTH","LAUNCH_DATE":"2021-05-26","NORAD_CAT_ID":"48684","MEAN_MOTION":"15.06410529","SEMIMAJOR_AXIS":"6925.316","REV_AT_EPOCH":"9358","COUNTRY_CODE":"US","CLASSIFICATION_TYPE":"U","OBJECT_TYPE":"PAYLOAD","OBJECT_NAME":"STARLINK-2741","TIME_SYSTEM":"UTC","TLE_LINE1":"1 48684U 21044AY  23026.78365514  .00001668  00000-0  13078-3 0  9996","APOAPSIS":"548.013","BSTAR":"0.00013078000000","DECAY_DATE":null,"RA_OF_ASC_NODE":"155.2400","PERIAPSIS":"546.350","RCS_SIZE":"LARGE","GP_ID":"223765476","EPHEMERIS_TYPE":"0","MEAN_MOTION_DOT":"0.00001668","MEAN_ELEMENT_THEORY":"SGP4"},{"EPHEMERIS_TYPE":"0","GP_ID":"223765489","RCS_SIZE":"LARGE","MEAN_ELEMENT_THEORY":"SGP4","MEAN_MOTION_DOT":"0.00001392","APOAPSIS":"548.084","TIME_SYSTEM":"UTC","TLE_LINE1":"1 48685U 21044AZ  23026.66520829  .00001392  00000-0  11230-3 0  9998","PERIAPSIS":"546.301","DECAY_DATE":null,"RA_OF_ASC_NODE":"140.4532","BSTAR":"0.00011230000000","CLASSIFICATION_TYPE":"U","COUNTRY_CODE":"US","OBJECT_NAME":"STARLINK-2751","OBJECT_TYPE":"PAYLOAD","MEAN_MOTION":"15.06406852","REV_AT_EPOCH":"9372","SEMIMAJOR_AXIS":"6925.328","NORAD_CAT_ID":"48685","LAUNCH_DATE":"2021-05-26","SITE":"AFETR","OBJECT_ID":"2021-044AZ","MEAN_MOTION_DDOT":"0.0000000000000","CENTER_NAME":"EARTH","EPOCH":"2023-01-26T15:57:53.996256","ELEMENT_SET_NO":"999","PERIOD":"95.592","ARG_OF_PERICENTER":"103.1491","MEAN_ANOMALY":"256.9641","INCLINATION":"53.0545","FILE":"3762185","TLE_LINE2":"2 48685  53.0545 140.4532 0001287 103.1491 256.9641 15.06406852 93722","REF_FRAME":"TEME","ECCENTRICITY":"0.00012870"},{"EPHEMERIS_TYPE":"0","RCS_SIZE":"LARGE","GP_ID":"223756241","MEAN_ELEMENT_THEORY":"SGP4","MEAN_MOTION_DOT":"0.00000520","APOAPSIS":"548.106","TIME_SYSTEM":"UTC","TLE_LINE1":"1 48686U 21044BA  23026.59290808  .00000520  00000-0  53816-4 0  9991","DECAY_DATE":null,"PERIAPSIS":"546.308","RA_OF_ASC_NODE":"146.0242","BSTAR":"0.00005381600000","COUNTRY_CODE":"US","CLASSIFICATION_TYPE":"U","OBJECT_NAME":"STARLINK-2629","OBJECT_TYPE":"PAYLOAD","MEAN_MOTION":"15.06402160","REV_AT_EPOCH":"9279","SEMIMAJOR_AXIS":"6925.342","NORAD_CAT_ID":"48686","LAUNCH_DATE":"2021-05-26","SITE":"AFETR","MEAN_MOTION_DDOT":"0.0000000000000","OBJECT_ID":"2021-044BA","CENTER_NAME":"EARTH","EPOCH":"2023-01-26T14:13:47.258112","ELEMENT_SET_NO":"999","ARG_OF_PERICENTER":"75.0420","PERIOD":"95.592","MEAN_ANOMALY":"285.0712","FILE":"3761951","INCLINATION":"53.0533","REF_FRAME":"TEME","TLE_LINE2":"2 48686  53.0533 146.0242 0001298  75.0420 285.0712 15.06402160 92797","ECCENTRICITY":"0.00012980"},{"GP_ID":"223756469","RCS_SIZE":"LARGE","EPHEMERIS_TYPE":"0","MEAN_MOTION_DOT":"0.00000746","MEAN_ELEMENT_THEORY":"SGP4","TIME_SYSTEM":"UTC","TLE_LINE1":"1 48687U 21044BB  23026.56799034  .00000746  00000-0  68939-4 0  9996","APOAPSIS":"548.062","BSTAR":"0.00006893900000","RA_OF_ASC_NODE":"135.8487","DECAY_DATE":null,"PERIAPSIS":"546.342","CLASSIFICATION_TYPE":"U","COUNTRY_CODE":"US","OBJECT_TYPE":"PAYLOAD","OBJECT_NAME":"STARLINK-2627","MEAN_MOTION":"15.06403677","SEMIMAJOR_AXIS":"6925.337","REV_AT_EPOCH":"9293","LAUNCH_DATE":"2021-05-26","NORAD_CAT_ID":"48687","SITE":"AFETR","EPOCH":"2023-01-26T13:37:54.365376","OBJECT_ID":"2021-044BB","MEAN_MOTION_DDOT":"0.0000000000000","CENTER_NAME":"EARTH","ELEMENT_SET_NO":"999","MEAN_ANOMALY":"280.6317","PERIOD":"95.592","ARG_OF_PERICENTER":"79.4812","ECCENTRICITY":"0.00012420","TLE_LINE2":"2 48687  53.0533 135.8487 0001242  79.4812 280.6317 15.06403677 92939","REF_FRAME":"TEME","FILE":"3761951","INCLINATION":"53.0533"}];
